STARLINK-35196          
1 66007U 25232C   25316.91668981  .00080570  00000+0  20073-2 0  9991
2 66007  53.1602 287.9907 0001429 118.5695 232.8517 15.39554891  4755
STARLINK-35236          
1 66008U 25232D   25316.96034458  .00121745  00000+0  21566-2 0  9991
2 66008  53.1585 287.5344 0001740 108.8871 251.2327 15.49394148  5529
STARLINK-35276          
1 66009U 25232E   25316.21348825  .00102251  00000+0  25307-2 0  9994
2 66009  53.1598 291.4080 0001174  81.9228 278.1910 15.39637000  5402
STARLINK-35297          
1 66010U 25232F   25316.91668981 -.02032875  00000+0 -48564-1 0  9998
2 66010  53.1588 287.7534 0001291  91.5394  19.2594 15.44459324  4752
STARLINK-35256          
1 66011U 25232G   25316.91668981  .00081573  00000+0  20322-2 0  9997
2 66011  53.1600 287.9375 0001935  99.1171 278.0682 15.39549297  4751
STARLINK-35293          
1 66012U 25232H   25316.91668981  .00086900  00000+0  21658-2 0  9990
2 66012  53.1593 287.8869 0001015 118.4346 284.5819 15.39507249  4753
STARLINK-35307          
1 66013U 25232J   25316.34795789  .00115741  00000+0  28547-2 0  9995
2 66013  53.1594 290.8254 0001026  93.6889 266.4234 15.39673817  5447
STARLINK-35395          
1 66014U 25232K   25316.91668981  .00100716  00000+0  25024-2 0  9995
2 66014  53.1599 288.0415 0001311 101.2689 224.3995 15.39526381  4744
STARLINK-34622          
1 66015U 25232L   25316.63472492  .00202813  00000+0  35447-2 0  9996
2 66015  53.1589 289.0560 0001669  99.5292 260.5906 15.49438128  5489
STARLINK-35243          
1 66016U 25232M   25316.63506577  .00122436  00000+0  21676-2 0  9990
2 66016  53.1592 289.0573 0001119  98.7115 261.4021 15.49407554  5491
STARLINK-35398          
1 66017U 25232N   25316.93252963  .00074676  00000+0  18559-2 0  9999
2 66017  53.1611 288.0734 0001878  94.4964 265.6256 15.39663775  5538
STARLINK-35376          
1 66018U 25232P   25316.91668981 -.00034855  00000+0 -86529-3 0  9999
2 66018  53.1588 287.7845 0001244 110.0068 344.3950 15.39622757  4752
