CCSDS_OMM_VERS = 2.0
CREATION_DATE  = 
ORIGINATOR     = 

OBJECT_NAME    = STARLINK-35196
OBJECT_ID      = 2025-232C
CENTER_NAME    = EARTH
REF_FRAME      = TEME
TIME_SYSTEM    = UTC
MEAN_ELEMENT_THEORY = SGP/SGP4

EPOCH          = 2025-11-12T22:00:01.999584
MEAN_MOTION    = 15.39554891
ECCENTRICITY   = .00014294
INCLINATION    = 53.1602
RA_OF_ASC_NODE = 287.9907
ARG_OF_PERICENTER = 118.5695
MEAN_ANOMALY   = 232.8517

EPHEMERIS_TYPE = 0
CLASSIFICATION_TYPE = U
NORAD_CAT_ID   = 66007
ELEMENT_SET_NO = 999
REV_AT_EPOCH   = 475
BSTAR          = .2007282E-2
MEAN_MOTION_DOT = .8057E-3
MEAN_MOTION_DDOT = 0

CCSDS_OMM_VERS = 2.0
CREATION_DATE  = 
ORIGINATOR     = 

OBJECT_NAME    = STARLINK-35236
OBJECT_ID      = 2025-232D
CENTER_NAME    = EARTH
REF_FRAME      = TEME
TIME_SYSTEM    = UTC
MEAN_ELEMENT_THEORY = SGP/SGP4

EPOCH          = 2025-11-12T23:02:53.771712
MEAN_MOTION    = 15.49394148
ECCENTRICITY   = .00017401
INCLINATION    = 53.1585
RA_OF_ASC_NODE = 287.5344
ARG_OF_PERICENTER = 108.8871
MEAN_ANOMALY   = 251.2327

EPHEMERIS_TYPE = 0
CLASSIFICATION_TYPE = U
NORAD_CAT_ID   = 66008
ELEMENT_SET_NO = 999
REV_AT_EPOCH   = 552
BSTAR          = .21566028E-2
MEAN_MOTION_DOT = .121745E-2
MEAN_MOTION_DDOT = 0

CCSDS_OMM_VERS = 2.0
CREATION_DATE  = 
ORIGINATOR     = 

OBJECT_NAME    = STARLINK-35276
OBJECT_ID      = 2025-232E
CENTER_NAME    = EARTH
REF_FRAME      = TEME
TIME_SYSTEM    = UTC
MEAN_ELEMENT_THEORY = SGP/SGP4

EPOCH          = 2025-11-12T05:07:25.384800
MEAN_MOTION    = 15.39637000
ECCENTRICITY   = .00011741
INCLINATION    = 53.1598
RA_OF_ASC_NODE = 291.4080
ARG_OF_PERICENTER = 81.9228
MEAN_ANOMALY   = 278.1910

EPHEMERIS_TYPE = 0
CLASSIFICATION_TYPE = U
NORAD_CAT_ID   = 66009
ELEMENT_SET_NO = 999
REV_AT_EPOCH   = 540
BSTAR          = .25306955E-2
MEAN_MOTION_DOT = .102251E-2
MEAN_MOTION_DDOT = 0

CCSDS_OMM_VERS = 2.0
CREATION_DATE  = 
ORIGINATOR     = 

OBJECT_NAME    = STARLINK-35297
OBJECT_ID      = 2025-232F
CENTER_NAME    = EARTH
REF_FRAME      = TEME
TIME_SYSTEM    = UTC
MEAN_ELEMENT_THEORY = SGP/SGP4

EPOCH          = 2025-11-12T22:00:01.999584
MEAN_MOTION    = 15.44459324
ECCENTRICITY   = .00012914
INCLINATION    = 53.1588
RA_OF_ASC_NODE = 287.7534
ARG_OF_PERICENTER = 91.5394
MEAN_ANOMALY   = 19.2594

EPHEMERIS_TYPE = 0
CLASSIFICATION_TYPE = U
NORAD_CAT_ID   = 66010
ELEMENT_SET_NO = 999
REV_AT_EPOCH   = 475
BSTAR          = -.48563637E-1
MEAN_MOTION_DOT = -.2032875E-1
MEAN_MOTION_DDOT = 0

CCSDS_OMM_VERS = 2.0
CREATION_DATE  = 
ORIGINATOR     = 

OBJECT_NAME    = STARLINK-35256
OBJECT_ID      = 2025-232G
CENTER_NAME    = EARTH
REF_FRAME      = TEME
TIME_SYSTEM    = UTC
MEAN_ELEMENT_THEORY = SGP/SGP4

EPOCH          = 2025-11-12T22:00:01.999584
MEAN_MOTION    = 15.39549297
ECCENTRICITY   = .00019356
INCLINATION    = 53.1600
RA_OF_ASC_NODE = 287.9375
ARG_OF_PERICENTER = 99.1171
MEAN_ANOMALY   = 278.0682

EPHEMERIS_TYPE = 0
CLASSIFICATION_TYPE = U
NORAD_CAT_ID   = 66011
ELEMENT_SET_NO = 999
REV_AT_EPOCH   = 475
BSTAR          = .20322355E-2
MEAN_MOTION_DOT = .81573E-3
MEAN_MOTION_DDOT = 0

CCSDS_OMM_VERS = 2.0
CREATION_DATE  = 
ORIGINATOR     = 

OBJECT_NAME    = STARLINK-35293
OBJECT_ID      = 2025-232H
CENTER_NAME    = EARTH
REF_FRAME      = TEME
TIME_SYSTEM    = UTC
MEAN_ELEMENT_THEORY = SGP/SGP4

EPOCH          = 2025-11-12T22:00:01.999584
MEAN_MOTION    = 15.39507249
ECCENTRICITY   = .0001015
INCLINATION    = 53.1593
RA_OF_ASC_NODE = 287.8869
ARG_OF_PERICENTER = 118.4346
MEAN_ANOMALY   = 284.5819

EPHEMERIS_TYPE = 0
CLASSIFICATION_TYPE = U
NORAD_CAT_ID   = 66012
ELEMENT_SET_NO = 999
REV_AT_EPOCH   = 475
BSTAR          = .21658047E-2
MEAN_MOTION_DOT = .869E-3
MEAN_MOTION_DDOT = 0

CCSDS_OMM_VERS = 2.0
CREATION_DATE  = 
ORIGINATOR     = 

OBJECT_NAME    = STARLINK-35307
OBJECT_ID      = 2025-232J
CENTER_NAME    = EARTH
REF_FRAME      = TEME
TIME_SYSTEM    = UTC
MEAN_ELEMENT_THEORY = SGP/SGP4

EPOCH          = 2025-11-12T08:21:03.561696
MEAN_MOTION    = 15.39673817
ECCENTRICITY   = .00010263
INCLINATION    = 53.1594
RA_OF_ASC_NODE = 290.8254
ARG_OF_PERICENTER = 93.6889
MEAN_ANOMALY   = 266.4234

EPHEMERIS_TYPE = 0
CLASSIFICATION_TYPE = U
NORAD_CAT_ID   = 66013
ELEMENT_SET_NO = 999
REV_AT_EPOCH   = 544
BSTAR          = .2854733E-2
MEAN_MOTION_DOT = .115741E-2
MEAN_MOTION_DDOT = 0

CCSDS_OMM_VERS = 2.0
CREATION_DATE  = 
ORIGINATOR     = 

OBJECT_NAME    = STARLINK-35395
OBJECT_ID      = 2025-232K
CENTER_NAME    = EARTH
REF_FRAME      = TEME
TIME_SYSTEM    = UTC
MEAN_ELEMENT_THEORY = SGP/SGP4

EPOCH          = 2025-11-12T22:00:01.999584
MEAN_MOTION    = 15.39526381
ECCENTRICITY   = .00013118
INCLINATION    = 53.1599
RA_OF_ASC_NODE = 288.0415
ARG_OF_PERICENTER = 101.2689
MEAN_ANOMALY   = 224.3995

EPHEMERIS_TYPE = 0
CLASSIFICATION_TYPE = U
NORAD_CAT_ID   = 66014
ELEMENT_SET_NO = 999
REV_AT_EPOCH   = 474
BSTAR          = .25024315E-2
MEAN_MOTION_DOT = .100716E-2
MEAN_MOTION_DDOT = 0

CCSDS_OMM_VERS = 2.0
CREATION_DATE  = 
ORIGINATOR     = 

OBJECT_NAME    = STARLINK-34622
OBJECT_ID      = 2025-232L
CENTER_NAME    = EARTH
REF_FRAME      = TEME
TIME_SYSTEM    = UTC
MEAN_ELEMENT_THEORY = SGP/SGP4

EPOCH          = 2025-11-12T15:14:00.233088
MEAN_MOTION    = 15.49438128
ECCENTRICITY   = .00016692
INCLINATION    = 53.1589
RA_OF_ASC_NODE = 289.0560
ARG_OF_PERICENTER = 99.5292
MEAN_ANOMALY   = 260.5906

EPHEMERIS_TYPE = 0
CLASSIFICATION_TYPE = U
NORAD_CAT_ID   = 66015
ELEMENT_SET_NO = 999
REV_AT_EPOCH   = 548
BSTAR          = .35446552E-2
MEAN_MOTION_DOT = .202813E-2
MEAN_MOTION_DDOT = 0

CCSDS_OMM_VERS = 2.0
CREATION_DATE  = 
ORIGINATOR     = 

OBJECT_NAME    = STARLINK-35243
OBJECT_ID      = 2025-232M
CENTER_NAME    = EARTH
REF_FRAME      = TEME
TIME_SYSTEM    = UTC
MEAN_ELEMENT_THEORY = SGP/SGP4

EPOCH          = 2025-11-12T15:14:29.682528
MEAN_MOTION    = 15.49407554
ECCENTRICITY   = .0001119
INCLINATION    = 53.1592
RA_OF_ASC_NODE = 289.0573
ARG_OF_PERICENTER = 98.7115
MEAN_ANOMALY   = 261.4021

EPHEMERIS_TYPE = 0
CLASSIFICATION_TYPE = U
NORAD_CAT_ID   = 66016
ELEMENT_SET_NO = 999
REV_AT_EPOCH   = 549
BSTAR          = .21676073E-2
MEAN_MOTION_DOT = .122436E-2
MEAN_MOTION_DDOT = 0

CCSDS_OMM_VERS = 2.0
CREATION_DATE  = 
ORIGINATOR     = 

OBJECT_NAME    = STARLINK-35398
OBJECT_ID      = 2025-232N
CENTER_NAME    = EARTH
REF_FRAME      = TEME
TIME_SYSTEM    = UTC
MEAN_ELEMENT_THEORY = SGP/SGP4

EPOCH          = 2025-11-12T22:22:50.560032
MEAN_MOTION    = 15.39663775
ECCENTRICITY   = .00018784
INCLINATION    = 53.1611
RA_OF_ASC_NODE = 288.0734
ARG_OF_PERICENTER = 94.4964
MEAN_ANOMALY   = 265.6256

EPHEMERIS_TYPE = 0
CLASSIFICATION_TYPE = U
NORAD_CAT_ID   = 66017
ELEMENT_SET_NO = 999
REV_AT_EPOCH   = 553
BSTAR          = .18559387E-2
MEAN_MOTION_DOT = .74676E-3
MEAN_MOTION_DDOT = 0

CCSDS_OMM_VERS = 2.0
CREATION_DATE  = 
ORIGINATOR     = 

OBJECT_NAME    = STARLINK-35376
OBJECT_ID      = 2025-232P
CENTER_NAME    = EARTH
REF_FRAME      = TEME
TIME_SYSTEM    = UTC
MEAN_ELEMENT_THEORY = SGP/SGP4

EPOCH          = 2025-11-12T22:00:01.999584
MEAN_MOTION    = 15.39622757
ECCENTRICITY   = .00012443
INCLINATION    = 53.1588
RA_OF_ASC_NODE = 287.7845
ARG_OF_PERICENTER = 110.0068
MEAN_ANOMALY   = 344.3950

EPHEMERIS_TYPE = 0
CLASSIFICATION_TYPE = U
NORAD_CAT_ID   = 66018
ELEMENT_SET_NO = 999
REV_AT_EPOCH   = 475
BSTAR          = -.8652942E-3
MEAN_MOTION_DOT = -.34855E-3
MEAN_MOTION_DDOT = 0

